[{"OBJECT_NAME":"STARLINK-1556","OBJECT_ID":"2020-055G","EPOCH":"2026-03-10T00:00:02.999808","MEAN_MOTION":15.19594502,"ECCENTRICITY":0.00019373,"INCLINATION":53.1095,"RA_OF_ASC_NODE":124.8078,"ARG_OF_PERICENTER":90.9986,"MEAN_ANOMALY":131.2843,"EPHEMERIS_TYPE":0,"CLASSIFICATION_TYPE":"U","NORAD_CAT_ID":46033,"ELEMENT_SET_NO":999,"REV_AT_EPOCH":574,"BSTAR":0.005702776,"MEAN_MOTION_DOT":0.0012472,"MEAN_MOTION_DDOT":0},{"OBJECT_NAME":"DMSP 5D-2 F14 DEB","OBJECT_ID":"1997-012R","EPOCH":"2026-03-09T22:53:23.097120","MEAN_MOTION":14.81560846,"ECCENTRICITY":0.01753616,"INCLINATION":98.3549,"RA_OF_ASC_NODE":137.9516,"ARG_OF_PERICENTER":248.8102,"MEAN_ANOMALY":109.4296,"EPHEMERIS_TYPE":0,"CLASSIFICATION_TYPE":"U","NORAD_CAT_ID":62945,"ELEMENT_SET_NO":999,"REV_AT_EPOCH":49672,"BSTAR":0.0018560597,"MEAN_MOTION_DOT":0.00019008,"MEAN_MOTION_DDOT":0}]
